[{"OBJECT_NAME":"STARLINK-1321","OBJECT_ID":"2020-025AU","EPOCH":"2026-03-02T01:45:46.024704","MEAN_MOTION":15.4684145,"ECCENTRICITY":0.0004401,"INCLINATION":53.0501,"RA_OF_ASC_NODE":94.9035,"ARG_OF_PERICENTER":11.652,"MEAN_ANOMALY":348.4587,"EPHEMERIS_TYPE":0,"CLASSIFICATION_TYPE":"U","NORAD_CAT_ID":45573,"ELEMENT_SET_NO":999,"REV_AT_EPOCH":32428,"BSTAR":0.001598,"MEAN_MOTION_DOT":0.00082003,"MEAN_MOTION_DDOT":0},{"OBJECT_NAME":"STARLINK-1331","OBJECT_ID":"2020-025AZ","EPOCH":"2026-03-02T03:29:06.490464","MEAN_MOTION":15.46792047,"ECCENTRICITY":0.0003888,"INCLINATION":53.0534,"RA_OF_ASC_NODE":101.229,"ARG_OF_PERICENTER":52.8766,"MEAN_ANOMALY":307.2595,"EPHEMERIS_TYPE":0,"CLASSIFICATION_TYPE":"U","NORAD_CAT_ID":45578,"ELEMENT_SET_NO":999,"REV_AT_EPOCH":32451,"BSTAR":0.0013957,"MEAN_MOTION_DOT":0.00071337,"MEAN_MOTION_DDOT":0},{"OBJECT_NAME":"STARLINK-1333","OBJECT_ID":"2020-025BB","EPOCH":"2026-03-02T04:22:19.402464","MEAN_MOTION":15.30178231,"ECCENTRICITY":0.0001383,"INCLINATION":53.1602,"RA_OF_ASC_NODE":112.6811,"ARG_OF_PERICENTER":92.3908,"MEAN_ANOMALY":267.7251,"EPHEMERIS_TYPE":0,"CLASSIFICATION_TYPE":"U","NORAD_CAT_ID":45580,"ELEMENT_SET_NO":999,"REV_AT_EPOCH":32435,"BSTAR":4.5435e-5,"MEAN_MOTION_DOT":9.86e-6,"MEAN_MOTION_DDOT":0},{"OBJECT_NAME":"STARLINK-1335","OBJECT_ID":"2020-025BC","EPOCH":"2026-03-02T06:00:01.999296","MEAN_MOTION":15.23302218,"ECCENTRICITY":0.0001532,"INCLINATION":53.1272,"RA_OF_ASC_NODE":109.5019,"ARG_OF_PERICENTER":90.5975,"MEAN_ANOMALY":289.9373,"EPHEMERIS_TYPE":0,"CLASSIFICATION_TYPE":"U","NORAD_CAT_ID":45581,"ELEMENT_SET_NO":999,"REV_AT_EPOCH":573,"BSTAR":0.035157,"MEAN_MOTION_DOT":0.00912082,"MEAN_MOTION_DDOT":0},{"OBJECT_NAME":"STARLINK-1337","OBJECT_ID":"2020-025BD","EPOCH":"2026-03-02T02:42:39.186720","MEAN_MOTION":15.5682326,"ECCENTRICITY":0.0004198,"INCLINATION":53.0534,"RA_OF_ASC_NODE":98.5231,"ARG_OF_PERICENTER":52.8297,"MEAN_ANOMALY":307.3097,"EPHEMERIS_TYPE":0,"CLASSIFICATION_TYPE":"U","NORAD_CAT_ID":45582,"ELEMENT_SET_NO":999,"REV_AT_EPOCH":32453,"BSTAR":0.0014284,"MEAN_MOTION_DOT":0.00105218,"MEAN_MOTION_DDOT":0},{"OBJECT_NAME":"STARLINK-1347","OBJECT_ID":"2020-025BH","EPOCH":"2026-03-02T03:41:20.023008","MEAN_MOTION":15.52393637,"ECCENTRICITY":0.000603,"INCLINATION":53.0463,"RA_OF_ASC_NODE":65.8294,"ARG_OF_PERICENTER":22.6303,"MEAN_ANOMALY":337.4971,"EPHEMERIS_TYPE":0,"CLASSIFICATION_TYPE":"U","NORAD_CAT_ID":45586,"ELEMENT_SET_NO":999,"REV_AT_EPOCH":32499,"BSTAR":0.0016131,"MEAN_MOTION_DOT":0.00101025,"MEAN_MOTION_DDOT":0},{"OBJECT_NAME":"STARLINK-1364","OBJECT_ID":"2020-025BL","EPOCH":"2026-03-01T19:33:40.928256","MEAN_MOTION":15.47913423,"ECCENTRICITY":0.00070642,"INCLINATION":53.0512,"RA_OF_ASC_NODE":100.9174,"ARG_OF_PERICENTER":24.2485,"MEAN_ANOMALY":335.8853,"EPHEMERIS_TYPE":0,"CLASSIFICATION_TYPE":"U","NORAD_CAT_ID":45589,"ELEMENT_SET_NO":999,"REV_AT_EPOCH":32447,"BSTAR":0.0016857694,"MEAN_MOTION_DOT":0.00089957,"MEAN_MOTION_DDOT":0},{"OBJECT_NAME":"STARLINK-1365","OBJECT_ID":"2020-025BM","EPOCH":"2026-03-02T03:55:05.154240","MEAN_MOTION":15.44161482,"ECCENTRICITY":0.0002895,"INCLINATION":53.0531,"RA_OF_ASC_NODE":129.3663,"ARG_OF_PERICENTER":3.5663,"MEAN_ANOMALY":356.5362,"EPHEMERIS_TYPE":0,"CLASSIFICATION_TYPE":"U","NORAD_CAT_ID":45590,"ELEMENT_SET_NO":999,"REV_AT_EPOCH":32412,"BSTAR":0.00076307,"MEAN_MOTION_DOT":0.00035269,"MEAN_MOTION_DDOT":0},{"OBJECT_NAME":"STARLINK-1443","OBJECT_ID":"2020-035D","EPOCH":"2026-03-02T06:00:01.999296","MEAN_MOTION":15.24874077,"ECCENTRICITY":0.0001755,"INCLINATION":53.1347,"RA_OF_ASC_NODE":99.214,"ARG_OF_PERICENTER":58.0446,"MEAN_ANOMALY":335.3221,"EPHEMERIS_TYPE":0,"CLASSIFICATION_TYPE":"U","NORAD_CAT_ID":45660,"ELEMENT_SET_NO":999,"REV_AT_EPOCH":582,"BSTAR":-0.00055666,"MEAN_MOTION_DOT":-0.00014332,"MEAN_MOTION_DDOT":0},{"OBJECT_NAME":"STARLINK-1446","OBJECT_ID":"2020-035G","EPOCH":"2026-03-02T03:59:55.891968","MEAN_MOTION":15.42499335,"ECCENTRICITY":5.51e-5,"INCLINATION":53.025,"RA_OF_ASC_NODE":35.1017,"ARG_OF_PERICENTER":224.3752,"MEAN_ANOMALY":135.7208,"EPHEMERIS_TYPE":0,"CLASSIFICATION_TYPE":"U","NORAD_CAT_ID":45663,"ELEMENT_SET_NO":999,"REV_AT_EPOCH":31851,"BSTAR":0.00051594,"MEAN_MOTION_DOT":0.00022364,"MEAN_MOTION_DDOT":0},{"OBJECT_NAME":"STARLINK-1448","OBJECT_ID":"2020-035J","EPOCH":"2026-03-02T02:43:38.684352","MEAN_MOTION":15.50536462,"ECCENTRICITY":0.0007356,"INCLINATION":53.0512,"RA_OF_ASC_NODE":89.1643,"ARG_OF_PERICENTER":44.8483,"MEAN_ANOMALY":315.3118,"EPHEMERIS_TYPE":0,"CLASSIFICATION_TYPE":"U","NORAD_CAT_ID":45665,"ELEMENT_SET_NO":999,"REV_AT_EPOCH":31774,"BSTAR":0.0016749,"MEAN_MOTION_DOT":0.0009815,"MEAN_MOTION_DDOT":0},{"OBJECT_NAME":"STARLINK-1451","OBJECT_ID":"2020-035M","EPOCH":"2026-03-02T03:13:32.572992","MEAN_MOTION":15.09594051,"ECCENTRICITY":0.0001336,"INCLINATION":53.0526,"RA_OF_ASC_NODE":100.1612,"ARG_OF_PERICENTER":351.8875,"MEAN_ANOMALY":8.2094,"EPHEMERIS_TYPE":0,"CLASSIFICATION_TYPE":"U","NORAD_CAT_ID":45668,"ELEMENT_SET_NO":999,"REV_AT_EPOCH":31760,"BSTAR":0.001497,"MEAN_MOTION_DOT":0.00024117,"MEAN_MOTION_DDOT":0},{"OBJECT_NAME":"STARLINK-1452","OBJECT_ID":"2020-035N","EPOCH":"2026-03-02T04:09:28.921824","MEAN_MOTION":15.43594278,"ECCENTRICITY":0.0008044,"INCLINATION":53.033,"RA_OF_ASC_NODE":57.5062,"ARG_OF_PERICENTER":24.7493,"MEAN_ANOMALY":335.3897,"EPHEMERIS_TYPE":0,"CLASSIFICATION_TYPE":"U","NORAD_CAT_ID":45669,"ELEMENT_SET_NO":999,"REV_AT_EPOCH":31820,"BSTAR":0.0016956,"MEAN_MOTION_DOT":0.00077885,"MEAN_MOTION_DDOT":0},{"OBJECT_NAME":"STARLINK-1453","OBJECT_ID":"2020-035P","EPOCH":"2026-03-02T04:04:21.079488","MEAN_MOTION":15.50543684,"ECCENTRICITY":0.0008212,"INCLINATION":53.0494,"RA_OF_ASC_NODE":49.4953,"ARG_OF_PERICENTER":15.2051,"MEAN_ANOMALY":344.9203,"EPHEMERIS_TYPE":0,"CLASSIFICATION_TYPE":"U","NORAD_CAT_ID":45670,"ELEMENT_SET_NO":999,"REV_AT_EPOCH":31820,"BSTAR":0.0017926,"MEAN_MOTION_DOT":0.00105226,"MEAN_MOTION_DDOT":0},{"OBJECT_NAME":"STARLINK-1454","OBJECT_ID":"2020-035Q","EPOCH":"2026-03-01T08:50:55.568544","MEAN_MOTION":15.49015828,"ECCENTRICITY":0.00084448,"INCLINATION":53.0514,"RA_OF_ASC_NODE":92.7865,"ARG_OF_PERICENTER":25.7859,"MEAN_ANOMALY":334.3568,"EPHEMERIS_TYPE":0,"CLASSIFICATION_TYPE":"U","NORAD_CAT_ID":45671,"ELEMENT_SET_NO":999,"REV_AT_EPOCH":31762,"BSTAR":0.0018198606,"MEAN_MOTION_DOT":0.00101162,"MEAN_MOTION_DDOT":0},{"OBJECT_NAME":"STARLINK-1456","OBJECT_ID":"2020-035S","EPOCH":"2026-03-02T01:45:39.079008","MEAN_MOTION":15.49512943,"ECCENTRICITY":0.0001559,"INCLINATION":53.0487,"RA_OF_ASC_NODE":82.8614,"ARG_OF_PERICENTER":95.6515,"MEAN_ANOMALY":264.467,"EPHEMERIS_TYPE":0,"CLASSIFICATION_TYPE":"U","NORAD_CAT_ID":45673,"ELEMENT_SET_NO":999,"REV_AT_EPOCH":31784,"BSTAR":0.00051578,"MEAN_MOTION_DOT":0.00028551,"MEAN_MOTION_DDOT":0},{"OBJECT_NAME":"STARLINK-1457","OBJECT_ID":"2020-035T","EPOCH":"2026-03-02T00:01:53.760288","MEAN_MOTION":15.76348805,"ECCENTRICITY":0.0010013,"INCLINATION":53.0477,"RA_OF_ASC_NODE":60.8687,"ARG_OF_PERICENTER":38.2792,"MEAN_ANOMALY":321.8937,"EPHEMERIS_TYPE":0,"CLASSIFICATION_TYPE":"U","NORAD_CAT_ID":45674,"ELEMENT_SET_NO":999,"REV_AT_EPOCH":31811,"BSTAR":0.00075411,"MEAN_MOTION_DOT":0.00122844,"MEAN_MOTION_DDOT":0},{"OBJECT_NAME":"STARLINK-1458","OBJECT_ID":"2020-035U","EPOCH":"2026-03-02T02:21:15.560064","MEAN_MOTION":15.4201608,"ECCENTRICITY":0.0006072,"INCLINATION":53.0526,"RA_OF_ASC_NODE":91.5263,"ARG_OF_PERICENTER":50.5789,"MEAN_ANOMALY":309.5752,"EPHEMERIS_TYPE":0,"CLASSIFICATION_TYPE":"U","NORAD_CAT_ID":45675,"ELEMENT_SET_NO":999,"REV_AT_EPOCH":31768,"BSTAR":0.0017142,"MEAN_MOTION_DOT":0.00074595,"MEAN_MOTION_DDOT":0},{"OBJECT_NAME":"STARLINK-1460","OBJECT_ID":"2020-035V","EPOCH":"2026-03-02T06:00:01.999296","MEAN_MOTION":15.22603458,"ECCENTRICITY":9.9e-5,"INCLINATION":53.1227,"RA_OF_ASC_NODE":99.2715,"ARG_OF_PERICENTER":116.0639,"MEAN_ANOMALY":186.6589,"EPHEMERIS_TYPE":0,"CLASSIFICATION_TYPE":"U","NORAD_CAT_ID":45676,"ELEMENT_SET_NO":999,"REV_AT_EPOCH":578,"BSTAR":0.0025031,"MEAN_MOTION_DOT":0.00059065,"MEAN_MOTION_DDOT":0},{"OBJECT_NAME":"STARLINK-1392","OBJECT_ID":"2020-035W","EPOCH":"2026-03-02T06:00:01.999296","MEAN_MOTION":15.26374112,"ECCENTRICITY":7.23e-5,"INCLINATION":53.1411,"RA_OF_ASC_NODE":99.2675,"ARG_OF_PERICENTER":108.0325,"MEAN_ANOMALY":136.657,"EPHEMERIS_TYPE":0,"CLASSIFICATION_TYPE":"U","NORAD_CAT_ID":45677,"ELEMENT_SET_NO":999,"REV_AT_EPOCH":583,"BSTAR":0.060408,"MEAN_MOTION_DOT":0.01740582,"MEAN_MOTION_DDOT":0},{"OBJECT_NAME":"STARLINK-1394","OBJECT_ID":"2020-035Y","EPOCH":"2026-03-01T10:08:54.593376","MEAN_MOTION":15.48232411,"ECCENTRICITY":0.00021559,"INCLINATION":53.0501,"RA_OF_ASC_NODE":76.1762,"ARG_OF_PERICENTER":86.634,"MEAN_ANOMALY":273.4914,"EPHEMERIS_TYPE":0,"CLASSIFICATION_TYPE":"U","NORAD_CAT_ID":45679,"ELEMENT_SET_NO":999,"REV_AT_EPOCH":31787,"BSTAR":0.0021499437,"MEAN_MOTION_DOT":0.00116448,"MEAN_MOTION_DDOT":0},{"OBJECT_NAME":"STARLINK-1402","OBJECT_ID":"2020-035AE","EPOCH":"2026-03-02T03:31:18.281568","MEAN_MOTION":15.4344139,"ECCENTRICITY":8.46e-5,"INCLINATION":53.0487,"RA_OF_ASC_NODE":59.2698,"ARG_OF_PERICENTER":250.6756,"MEAN_ANOMALY":109.4157,"EPHEMERIS_TYPE":0,"CLASSIFICATION_TYPE":"U","NORAD_CAT_ID":45685,"ELEMENT_SET_NO":999,"REV_AT_EPOCH":31818,"BSTAR":0.0016682,"MEAN_MOTION_DOT":0.00076129,"MEAN_MOTION_DDOT":0},{"OBJECT_NAME":"STARLINK-1404","OBJECT_ID":"2020-035AF","EPOCH":"2026-03-02T01:17:50.243136","MEAN_MOTION":15.3018117,"ECCENTRICITY":0.0001098,"INCLINATION":53.1616,"RA_OF_ASC_NODE":85.1651,"ARG_OF_PERICENTER":88.4222,"MEAN_ANOMALY":271.6905,"EPHEMERIS_TYPE":0,"CLASSIFICATION_TYPE":"U","NORAD_CAT_ID":45686,"ELEMENT_SET_NO":999,"REV_AT_EPOCH":31780,"BSTAR":3.4189e-5,"MEAN_MOTION_DOT":6.53e-6,"MEAN_MOTION_DDOT":0}]
